{"type":"FeatureCollection","features":[{"type":"Feature","geometry":{"type":"Polygon","coordinates":[[[14.240919,49.974853],[14.240696,49.975364],[14.235936,49.974541],[14.235744,49.975043],[14.23693,49.976117],[14.23816,49.976221],[14.238059,49.976817],[14.238701,49.977583],[14.241556,49.979286],[14.241654,49.979265],[14.24167,49.979346],[14.242138,49.979008],[14.243083,49.978575],[14.250519,49.977203],[14.252333,49.976796],[14.253786,49.976714],[14.254585,49.976904],[14.256002,49.977005],[14.255626,49.978763],[14.255527,49.980111],[14.253837,49.980194],[14.253824,49.980121],[14.253368,49.980122],[14.253365,49.979636],[14.251118,49.979774],[14.251287,49.980423],[14.251638,49.981167],[14.250194,49.981523],[14.2495,49.9803],[14.249027,49.980408],[14.249622,49.98144],[14.249231,49.981536],[14.249882,49.982544],[14.249963,49.982536],[14.25056,49.983957],[14.250139,49.984116],[14.250174,49.984296],[14.249315,49.984419],[14.249004,49.983796],[14.248599,49.983351],[14.247702,49.984343],[14.246699,49.983941],[14.246511,49.984322],[14.246415,49.984848],[14.245259,49.984753],[14.243726,49.98445],[14.243589,49.984604],[14.24347,49.984572],[14.243351,49.98469],[14.243869,49.984895],[14.243783,49.985292],[14.242559,49.985352],[14.242555,49.98557],[14.240492,49.985758],[14.240689,49.986774],[14.240683,49.987358],[14.240522,49.987936],[14.240006,49.987425],[14.239596,49.986113],[14.237589,49.985649],[14.237443,49.985559],[14.237079,49.985598],[14.236276,49.985352],[14.236008,49.985658],[14.235161,49.985655],[14.235634,49.986305],[14.235828,49.987025],[14.235123,49.987059],[14.235034,49.986853],[14.233082,49.986982],[14.232785,49.987802],[14.232064,49.987772],[14.231462,49.988264],[14.231186,49.988807],[14.230936,49.989775],[14.230513,49.990894],[14.227992,49.990549],[14.225549,49.990506],[14.22553,49.989754],[14.225291,49.988825],[14.225279,49.988425],[14.223893,49.988529],[14.221311,49.988938],[14.220183,49.989021],[14.220527,49.990255],[14.219792,49.990234],[14.218245,49.989863],[14.218101,49.988511],[14.217341,49.9885],[14.217564,49.986869],[14.217875,49.985688],[14.218374,49.983171],[14.218474,49.981692],[14.218375,49.979906],[14.220334,49.980288],[14.222696,49.981122],[14.224546,49.981462],[14.225516,49.980313],[14.22443,49.979745],[14.222778,49.97909],[14.223792,49.978158],[14.225473,49.97887],[14.226314,49.979128],[14.226586,49.978876],[14.223456,49.977201],[14.224077,49.976872],[14.225681,49.9776],[14.225844,49.97733],[14.226003,49.976762],[14.227315,49.976803],[14.227403,49.976681],[14.227975,49.976749],[14.22814,49.97634],[14.22813,49.975884],[14.228093,49.975459],[14.227948,49.975431],[14.227914,49.975075],[14.228047,49.975072],[14.228311,49.974696],[14.227207,49.974357],[14.227799,49.973169],[14.229407,49.973385],[14.22987,49.974719],[14.230348,49.975064],[14.231055,49.974987],[14.231221,49.974887],[14.23209,49.975046],[14.231698,49.973931],[14.231855,49.973583],[14.23274,49.973184],[14.233058,49.972954],[14.233616,49.972291],[14.237999,49.973],[14.238303,49.972682],[14.239648,49.970685],[14.241004,49.968209],[14.241318,49.967822],[14.241938,49.967439],[14.243972,49.966871],[14.244025,49.96687],[14.243254,49.968422],[14.24467,49.96887],[14.24608,49.968965],[14.247489,49.96926],[14.247588,49.9691],[14.248884,49.969319],[14.248075,49.971356],[14.246816,49.971474],[14.242898,49.971514],[14.242903,49.971877],[14.242707,49.97232],[14.242698,49.972447],[14.242839,49.972535],[14.242751,49.972803],[14.243591,49.973183],[14.243226,49.974146],[14.241305,49.973887],[14.240919,49.974853]]]},"properties":{"kod":676942,"nazev":"Kuchař","obec":531961}},{"type":"Feature","geometry":{"type":"Polygon","coordinates":[[[14.322253,50.065143],[14.322218,50.065265],[14.322047,50.065246],[14.321764,50.065388],[14.321722,50.065507],[14.322486,50.066538],[14.322753,50.067162],[14.32252,50.0683],[14.322416,50.068473],[14.322523,50.068503],[14.322534,50.06925],[14.322675,50.070152],[14.322868,50.070695],[14.322808,50.070965],[14.322537,50.071219],[14.32222,50.071703],[14.322201,50.072182],[14.321743,50.073138],[14.321725,50.073495],[14.32207,50.073373],[14.322337,50.073102],[14.323107,50.073284],[14.323308,50.073195],[14.324589,50.07349],[14.324872,50.073741],[14.324915,50.073878],[14.325558,50.074038],[14.32539,50.07447],[14.325393,50.074741],[14.325548,50.074803],[14.325485,50.074859],[14.325497,50.075106],[14.325705,50.076208],[14.32479,50.076249],[14.323884,50.076144],[14.321791,50.076232],[14.321768,50.076299],[14.321681,50.076238],[14.31999,50.076199],[14.320029,50.075772],[14.318836,50.076047],[14.318583,50.076023],[14.318478,50.075872],[14.318114,50.075975],[14.317726,50.075897],[14.3149,50.07601],[14.314871,50.075854],[14.313832,50.075831],[14.31381,50.075766],[14.306473,50.076907],[14.304245,50.077142],[14.300245,50.076848],[14.298652,50.076945],[14.29626,50.076949],[14.296266,50.077012],[14.295792,50.077314],[14.295136,50.077496],[14.293645,50.077235],[14.293294,50.077562],[14.293188,50.077549],[14.293497,50.077244],[14.293516,50.077138],[14.292454,50.076359],[14.292004,50.075886],[14.291346,50.074938],[14.291306,50.074218],[14.291594,50.072263],[14.291606,50.07133],[14.29191,50.070171],[14.291747,50.070166],[14.292403,50.068205],[14.292845,50.067272],[14.293031,50.066641],[14.294738,50.065807],[14.294956,50.065953],[14.296441,50.065209],[14.29714,50.065337],[14.297222,50.064936],[14.298037,50.064628],[14.298999,50.063961],[14.299381,50.063779],[14.299322,50.063714],[14.300742,50.062879],[14.300959,50.062892],[14.30082,50.062706],[14.302129,50.062025],[14.302863,50.062026],[14.303048,50.061531],[14.304371,50.060871],[14.3097,50.061752],[14.312817,50.06249],[14.314123,50.062807],[14.315196,50.063172],[14.317393,50.064281],[14.31836,50.064606],[14.319623,50.064879],[14.322253,50.065143]]]},"properties":{"kod":729701,"nazev":"Řepy","obec":554782}},{"type":"Feature","geometry":{"type":"Polygon","coordinates":[[[14.273827,50.117583],[14.260046,50.113444],[14.259052,50.113967],[14.257162,50.114564],[14.256041,50.113281],[14.256363,50.113158],[14.25612,50.112853],[14.256078,50.112539],[14.254875,50.112028],[14.253188,50.111518],[14.250981,50.110987],[14.246057,50.11008],[14.245313,50.109972],[14.244942,50.110002],[14.242384,50.111172],[14.240493,50.111298],[14.239914,50.111436],[14.239125,50.111772],[14.238807,50.111799],[14.238295,50.111488],[14.238105,50.111582],[14.238015,50.111503],[14.238155,50.111439],[14.237057,50.110509],[14.237015,50.110221],[14.237195,50.109625],[14.237611,50.108796],[14.237935,50.108542],[14.238992,50.108009],[14.239401,50.107505],[14.239324,50.107282],[14.237713,50.106765],[14.237425,50.106737],[14.237196,50.10683],[14.23678,50.107303],[14.236325,50.107343],[14.231016,50.10575],[14.230857,50.105604],[14.230759,50.105234],[14.230502,50.105089],[14.227883,50.104348],[14.225595,50.104053],[14.224592,50.103214],[14.224445,50.102912],[14.226107,50.100589],[14.226277,50.100453],[14.226528,50.100392],[14.232888,50.102264],[14.233553,50.102213],[14.236043,50.101157],[14.236954,50.101026],[14.237723,50.101231],[14.238442,50.101846],[14.238877,50.102028],[14.246077,50.10291],[14.246621,50.102907],[14.247176,50.102783],[14.247224,50.102854],[14.24698,50.102917],[14.246911,50.103104],[14.24984,50.103469],[14.258346,50.099384],[14.255131,50.098827],[14.254664,50.098661],[14.254183,50.098269],[14.253997,50.097781],[14.254171,50.097314],[14.25444,50.097063],[14.254795,50.096863],[14.255351,50.096716],[14.260266,50.096607],[14.260602,50.096563],[14.261001,50.096291],[14.261096,50.087095],[14.265152,50.087288],[14.268273,50.085747],[14.268728,50.086045],[14.270961,50.086137],[14.272631,50.087578],[14.273348,50.087619],[14.274478,50.085781],[14.274498,50.084539],[14.275255,50.081072],[14.277496,50.081112],[14.281641,50.081619],[14.28261,50.081663],[14.283928,50.081586],[14.285335,50.081209],[14.285038,50.079141],[14.285011,50.078261],[14.287921,50.077665],[14.287931,50.07721],[14.289375,50.077137],[14.289336,50.076927],[14.289874,50.076912],[14.289851,50.077138],[14.292572,50.077294],[14.293294,50.077562],[14.293645,50.077235],[14.295136,50.077496],[14.295792,50.077314],[14.296266,50.077012],[14.29626,50.076949],[14.298652,50.076945],[14.300245,50.076848],[14.304245,50.077142],[14.306473,50.076907],[14.31381,50.075766],[14.313832,50.075831],[14.314871,50.075854],[14.3149,50.07601],[14.317726,50.075897],[14.318114,50.075975],[14.318478,50.075872],[14.318583,50.076023],[14.318836,50.076047],[14.320029,50.075772],[14.31999,50.076199],[14.321681,50.076238],[14.321768,50.076299],[14.321791,50.076232],[14.323698,50.076152],[14.323656,50.076774],[14.324661,50.079402],[14.324967,50.079459],[14.325137,50.07981],[14.325236,50.079852],[14.325176,50.079937],[14.325392,50.080679],[14.321215,50.081475],[14.320535,50.082012],[14.320514,50.082173],[14.320703,50.083142],[14.321938,50.084515],[14.324239,50.08515],[14.324375,50.085207],[14.324336,50.085279],[14.325292,50.085758],[14.325128,50.085822],[14.325443,50.086398],[14.325407,50.086596],[14.325547,50.086605],[14.325759,50.087189],[14.323722,50.08705],[14.323588,50.087889],[14.322756,50.08773],[14.323536,50.088989],[14.323631,50.089684],[14.323811,50.089931],[14.323072,50.089914],[14.321878,50.090137],[14.319111,50.090353],[14.315631,50.0913],[14.314429,50.09199],[14.312067,50.091609],[14.308439,50.090759],[14.307955,50.091695],[14.308167,50.09166],[14.308151,50.091739],[14.308246,50.09176],[14.308221,50.091913],[14.307926,50.092341],[14.307811,50.092391],[14.305187,50.092074],[14.305006,50.092539],[14.303927,50.092357],[14.30373,50.092393],[14.30351,50.093021],[14.304132,50.093134],[14.303928,50.094287],[14.305448,50.09445],[14.307452,50.09434],[14.307534,50.094787],[14.307293,50.095124],[14.307965,50.095095],[14.309593,50.094796],[14.30999,50.09574],[14.308181,50.09575],[14.308237,50.096481],[14.30812,50.096836],[14.304558,50.096508],[14.30454,50.096715],[14.302381,50.096488],[14.302147,50.096576],[14.302171,50.096861],[14.301724,50.09751],[14.303318,50.097814],[14.303077,50.098278],[14.300977,50.098017],[14.300954,50.098616],[14.298646,50.098163],[14.298386,50.097312],[14.298231,50.09573],[14.298138,50.09559],[14.29693,50.095152],[14.296513,50.0955],[14.296239,50.096039],[14.296172,50.096508],[14.296288,50.096737],[14.296263,50.096989],[14.296044,50.097181],[14.29597,50.097445],[14.294993,50.102719],[14.294348,50.104688],[14.293625,50.106272],[14.292832,50.107676],[14.291496,50.109536],[14.290057,50.1112],[14.289018,50.112081],[14.288786,50.112473],[14.288783,50.11277],[14.288706,50.112845],[14.288565,50.112828],[14.2887,50.112956],[14.288225,50.113303],[14.287914,50.113154],[14.287838,50.113195],[14.288152,50.113351],[14.286844,50.114248],[14.286887,50.114581],[14.287178,50.114729],[14.287187,50.114868],[14.285561,50.115627],[14.285278,50.115674],[14.284664,50.11547],[14.282008,50.117227],[14.27884,50.119081],[14.273827,50.117583]]]},"properties":{"kod":729710,"nazev":"Ruzyně","obec":554782}},{"type":"Feature","geometry":{"type":"Polygon","coordinates":[[[14.27162,50.05427],[14.271461,50.053611],[14.271499,50.05308],[14.272637,50.050611],[14.271002,50.049453],[14.270008,50.049214],[14.268264,50.049138],[14.268175,50.048691],[14.269279,50.048651],[14.269948,50.048436],[14.270302,50.048201],[14.270571,50.047904],[14.270637,50.047767],[14.270564,50.047747],[14.270995,50.04709],[14.271079,50.046756],[14.270915,50.046611],[14.270468,50.046481],[14.270499,50.04629],[14.271002,50.046313],[14.270296,50.044864],[14.270121,50.044291],[14.270171,50.044112],[14.269881,50.043363],[14.268643,50.043336],[14.268663,50.043034],[14.269227,50.042748],[14.269507,50.04192],[14.269491,50.041723],[14.270101,50.040097],[14.271076,50.038573],[14.271862,50.037588],[14.273007,50.036535],[14.274143,50.035718],[14.275192,50.035108],[14.279831,50.033092],[14.282065,50.031892],[14.282382,50.031497],[14.285849,50.028837],[14.287222,50.02796],[14.287311,50.027988],[14.288747,50.027292],[14.290005,50.027518],[14.290714,50.027755],[14.294911,50.029545],[14.294981,50.029622],[14.29451,50.030065],[14.2942,50.03049],[14.293227,50.032466],[14.292542,50.034577],[14.291872,50.036118],[14.291761,50.036976],[14.291926,50.037565],[14.291745,50.037707],[14.287229,50.037636],[14.28453,50.037753],[14.285569,50.038622],[14.28287,50.038816],[14.283018,50.039832],[14.283032,50.040544],[14.283462,50.042705],[14.286687,50.042314],[14.287088,50.043599],[14.287532,50.043546],[14.289397,50.042982],[14.290927,50.042096],[14.290865,50.041965],[14.291059,50.04182],[14.291904,50.041437],[14.292554,50.041289],[14.29471,50.040527],[14.295563,50.043273],[14.29763,50.042973],[14.299237,50.043031],[14.299918,50.043165],[14.300293,50.043325],[14.301281,50.044019],[14.301089,50.045065],[14.301187,50.045655],[14.301168,50.046335],[14.301377,50.04645],[14.301329,50.04721],[14.301011,50.049256],[14.300645,50.049253],[14.299971,50.050415],[14.299303,50.050382],[14.299164,50.051342],[14.298569,50.051307],[14.298139,50.052773],[14.298091,50.053767],[14.297989,50.054067],[14.297834,50.054337],[14.296591,50.055436],[14.295919,50.056485],[14.295588,50.05739],[14.294991,50.058327],[14.291276,50.057967],[14.288278,50.05731],[14.28587,50.056648],[14.285737,50.056812],[14.287515,50.057567],[14.287429,50.057679],[14.286278,50.057278],[14.283681,50.056004],[14.283918,50.055289],[14.284453,50.052354],[14.282207,50.052105],[14.281933,50.053061],[14.280866,50.052963],[14.280867,50.054036],[14.281295,50.055171],[14.281237,50.055365],[14.280323,50.055302],[14.27898,50.054808],[14.272311,50.053085],[14.27162,50.05427]]]},"properties":{"kod":770353,"nazev":"Třebonice","obec":554782}},{"type":"Feature","geometry":{"type":"Polygon","coordinates":[[[14.178167,50.002578],[14.17821,50.002537],[14.176372,50.001535],[14.177491,50.001164],[14.178729,50.001147],[14.179223,50.001026],[14.179744,50.000532],[14.179931,49.999622],[14.180295,49.999243],[14.182311,49.998083],[14.182564,49.997399],[14.182805,49.997094],[14.182435,49.996994],[14.180816,49.995881],[14.180512,49.996081],[14.177684,49.995626],[14.176069,49.994986],[14.174818,49.994357],[14.17356,49.993328],[14.173791,49.992428],[14.174468,49.991943],[14.174858,49.991405],[14.174256,49.991197],[14.173047,49.990955],[14.172355,49.990557],[14.171087,49.990178],[14.170778,49.989974],[14.170796,49.989875],[14.169492,49.989759],[14.170891,49.989294],[14.170785,49.988828],[14.170821,49.988545],[14.172751,49.988688],[14.173949,49.988954],[14.173956,49.989091],[14.176268,49.989561],[14.176796,49.989808],[14.178065,49.990082],[14.178396,49.989911],[14.17924,49.989797],[14.180647,49.989985],[14.182176,49.990368],[14.182773,49.990618],[14.183537,49.991311],[14.184544,49.991793],[14.186644,49.991958],[14.188663,49.990603],[14.192069,49.991919],[14.192969,49.991937],[14.19407,49.991445],[14.192011,49.99061],[14.19276,49.990264],[14.193828,49.989923],[14.1941,49.990513],[14.195843,49.990357],[14.195774,49.98978],[14.195983,49.989541],[14.196097,49.988907],[14.196052,49.988534],[14.197139,49.988438],[14.199384,49.988489],[14.19937,49.98811],[14.200945,49.988037],[14.200938,49.987344],[14.202312,49.987448],[14.202273,49.987929],[14.203295,49.987993],[14.205281,49.988375],[14.206937,49.988541],[14.209153,49.989073],[14.20953,49.988387],[14.209963,49.987905],[14.209322,49.987793],[14.209269,49.986708],[14.211075,49.986918],[14.211108,49.986766],[14.210949,49.986142],[14.210536,49.985537],[14.211473,49.985117],[14.212572,49.985214],[14.21291,49.984378],[14.213444,49.983617],[14.213635,49.982841],[14.213582,49.980221],[14.213389,49.979],[14.213094,49.978323],[14.215465,49.979146],[14.218375,49.979906],[14.218474,49.981692],[14.218374,49.983171],[14.217875,49.985688],[14.217564,49.986869],[14.217341,49.9885],[14.218101,49.988511],[14.218245,49.989863],[14.219792,49.990234],[14.222971,49.99014],[14.223187,49.991618],[14.220013,49.991871],[14.217069,49.99228],[14.217476,49.993744],[14.218273,49.995352],[14.215912,49.995151],[14.211451,49.994614],[14.211416,49.994033],[14.209564,49.993802],[14.209456,49.994899],[14.208618,49.994912],[14.208551,49.996904],[14.207957,49.996664],[14.206951,49.996094],[14.206905,49.996118],[14.207495,49.996477],[14.206219,49.996914],[14.207112,49.998495],[14.207213,49.999429],[14.207548,49.999421],[14.207561,49.999584],[14.204933,49.999333],[14.204853,49.998912],[14.202936,49.998519],[14.199292,49.997532],[14.19882,49.997841],[14.198176,49.998579],[14.197242,50.000085],[14.195945,49.999993],[14.19494,50.000099],[14.194875,50.000236],[14.194419,50.000261],[14.191285,49.999951],[14.189677,49.999505],[14.188707,50.000708],[14.187573,50.001549],[14.186347,50.002621],[14.185674,50.002821],[14.185076,50.002818],[14.183752,50.003187],[14.182807,50.00357],[14.182093,50.004001],[14.181446,50.003876],[14.179001,50.003083],[14.178167,50.002578]]]},"properties":{"kod":788449,"nazev":"Vysoký Újezd u Berouna","obec":531961}},{"type":"Feature","geometry":{"type":"Polygon","coordinates":[[[14.258053,50.071517],[14.2578,50.070832],[14.25799,50.069524],[14.258229,50.069045],[14.25819,50.068562],[14.258259,50.067825],[14.259111,50.067522],[14.258716,50.064424],[14.256847,50.06404],[14.254151,50.063148],[14.253823,50.063013],[14.2536,50.062731],[14.253309,50.062565],[14.24756,50.062224],[14.247823,50.061099],[14.24774,50.059722],[14.248087,50.058308],[14.249456,50.057945],[14.250105,50.057623],[14.250848,50.056769],[14.251298,50.056894],[14.25357,50.057133],[14.255598,50.057087],[14.255895,50.056262],[14.2565,50.055537],[14.257231,50.054423],[14.258117,50.054563],[14.262305,50.05553],[14.264034,50.05288],[14.264308,50.052332],[14.267356,50.053054],[14.270117,50.054204],[14.270885,50.054338],[14.271566,50.054333],[14.271724,50.055443],[14.272185,50.055455],[14.27236,50.054296],[14.273472,50.05452],[14.273211,50.05539],[14.275078,50.055785],[14.274524,50.056791],[14.273583,50.05644],[14.273204,50.056713],[14.275118,50.058001],[14.276153,50.058268],[14.276193,50.0582],[14.276589,50.058247],[14.276516,50.058621],[14.276658,50.058648],[14.276577,50.059087],[14.276385,50.059382],[14.275519,50.059268],[14.274141,50.059352],[14.274262,50.060369],[14.274369,50.063437],[14.274201,50.064242],[14.274136,50.065702],[14.273686,50.066896],[14.275847,50.067377],[14.279225,50.068525],[14.279045,50.068838],[14.278704,50.069844],[14.278477,50.069864],[14.278538,50.070054],[14.278788,50.070344],[14.278656,50.07084],[14.278557,50.070919],[14.27825,50.070872],[14.277789,50.071391],[14.276302,50.07223],[14.275302,50.073087],[14.266755,50.072628],[14.258053,50.071517]]]},"properties":{"kod":793256,"nazev":"Sobín","obec":554782}},{"type":"Feature","geometry":{"type":"Polygon","coordinates":[[[14.278557,50.070919],[14.278716,50.07073],[14.278788,50.070344],[14.278538,50.070054],[14.278477,50.069864],[14.278704,50.069844],[14.279045,50.068838],[14.279225,50.068525],[14.275847,50.067377],[14.273686,50.066896],[14.274136,50.065702],[14.274201,50.064242],[14.274369,50.063437],[14.274262,50.060369],[14.274141,50.059352],[14.275519,50.059268],[14.276385,50.059382],[14.276577,50.059087],[14.276658,50.058648],[14.276516,50.058621],[14.276589,50.058247],[14.276193,50.0582],[14.276153,50.058268],[14.275118,50.058001],[14.273204,50.056713],[14.273583,50.05644],[14.274524,50.056791],[14.275078,50.055785],[14.273211,50.05539],[14.273472,50.05452],[14.27236,50.054296],[14.272185,50.055455],[14.271724,50.055443],[14.271566,50.054333],[14.271633,50.054319],[14.271864,50.053758],[14.272311,50.053085],[14.27898,50.054808],[14.280323,50.055302],[14.281237,50.055365],[14.281295,50.055171],[14.280867,50.054036],[14.280866,50.052963],[14.281933,50.053061],[14.282207,50.052105],[14.284453,50.052354],[14.283918,50.055289],[14.283681,50.056004],[14.286278,50.057278],[14.287429,50.057679],[14.287515,50.057567],[14.285737,50.056812],[14.28587,50.056648],[14.288278,50.05731],[14.291276,50.057967],[14.294991,50.058327],[14.295588,50.05739],[14.295919,50.056485],[14.296587,50.055442],[14.29715,50.054984],[14.304698,50.057303],[14.30444,50.060852],[14.303048,50.061531],[14.302863,50.062026],[14.302129,50.062025],[14.30082,50.062706],[14.300959,50.062892],[14.300742,50.062879],[14.299322,50.063714],[14.299381,50.063779],[14.298999,50.063961],[14.298037,50.064628],[14.297222,50.064936],[14.29714,50.065337],[14.296441,50.065209],[14.294956,50.065953],[14.294738,50.065807],[14.293031,50.066641],[14.292845,50.067272],[14.292403,50.068205],[14.291747,50.070166],[14.29191,50.070171],[14.291606,50.07133],[14.291594,50.072263],[14.291296,50.074516],[14.291346,50.074938],[14.292004,50.075886],[14.292538,50.076441],[14.293516,50.077138],[14.293497,50.077244],[14.293207,50.077514],[14.292572,50.077294],[14.289851,50.077138],[14.289874,50.076912],[14.289336,50.076927],[14.289286,50.076856],[14.289217,50.076756],[14.289644,50.07649],[14.289974,50.075946],[14.290131,50.075221],[14.29012,50.07494],[14.290374,50.074935],[14.29039,50.073869],[14.290193,50.073178],[14.288308,50.073412],[14.285323,50.073495],[14.284484,50.073589],[14.282434,50.074305],[14.28181,50.073727],[14.281095,50.073276],[14.280325,50.073113],[14.279046,50.072982],[14.277263,50.072986],[14.278028,50.072283],[14.277583,50.072116],[14.277894,50.072001],[14.277962,50.071916],[14.277911,50.071877],[14.278372,50.071355],[14.278345,50.071194],[14.278452,50.071142],[14.278557,50.070919]]]},"properties":{"kod":793264,"nazev":"Zličín","obec":554782}}]}