{"type":"FeatureCollection","features":[{"type":"Feature","geometry":{"type":"Point","coordinates":[14.30091174224877,50.070507924521173]},"properties":{"kod":400483,"nazev":"Řepy","obec":554782}},{"type":"Feature","geometry":{"type":"Point","coordinates":[14.266710313457967,50.065621699637241]},"properties":{"kod":193259,"nazev":"Sobín","obec":554782}},{"type":"Feature","geometry":{"type":"Point","coordinates":[14.280939780399725,50.045521069906897]},"properties":{"kod":490211,"nazev":"Třebonice","obec":554782}},{"type":"Feature","geometry":{"type":"Point","coordinates":[14.290388118214301,50.060486114793903]},"properties":{"kod":400351,"nazev":"Zličín","obec":554782}},{"type":"Feature","geometry":{"type":"Point","coordinates":[14.300438361316136,50.092252549020166]},"properties":{"kod":400394,"nazev":"Ruzyně","obec":554782}}]}